STARLINK-1132
1 45044U 20006A   26090.85093682  .00087452  00000+0  17453-2 0  9990
2 45044  53.1546 148.7346 0004368 326.4039  33.6691 15.46122428340352
STARLINK-2036
1 47652U 21012AJ  26090.89286917  .00050714  00000+0  10202-2 0  9990
2 47652  53.1609 319.1435 0002038 199.8405 160.2524 15.46139052283510
